QIANFAN-9               
1 60387U 24140J   25346.16599844  .00000143  00000+0  20206-3 0  9991
2 60387  88.9764 299.3957 0015288 193.3821 166.6927 13.50981431 67255
QIANFAN-10              
1 60388U 24140K   25346.17018713  .00000128  00000+0  17869-3 0  9998
2 60388  88.9774 298.7424 0014504 169.2686 190.8777 13.50981839 67388
QIANFAN-11              
1 60389U 24140L   25346.13320512  .00000132  00000+0  18535-3 0  9994
2 60389  88.9699 299.3340 0013348 192.2513 167.8315 13.50978102 67032
QIANFAN-12              
1 60390U 24140M   25346.15369845  .00000138  00000+0  19536-3 0  9998
2 60390  88.9742 299.3749 0011932 200.4192 159.6484 13.50978946 67164
QIANFAN-13              
1 60391U 24140N   25346.12489528  .00000145  00000+0  20638-3 0  9990
2 60391  88.9755 299.4777 0011679 203.3269 156.7353 13.50979477 67181
QIANFAN-14              
1 60392U 24140P   25346.14949043  .00000130  00000+0  18219-3 0  9992
2 60392  88.9734 299.3729 0015344 204.8270 155.2144 13.50978969 67194
QIANFAN-15              
1 60393U 24140Q   25346.15777845  .00000133  00000+0  18766-3 0  9993
2 60393  88.9757 299.3284 0011582 187.9368 172.1601 13.50977742 67188
QIANFAN-16              
1 60394U 24140R   25346.14555133  .00000130  00000+0  18319-3 0  9998
2 60394  88.9760 299.4498 0013198 208.2807 151.7629 13.50983086 67092
